SAUDISAT 1C             
1 27607U 02058C   15354.50572370  .00000730  00000-0  12356-3 0  9994
2 27607  64.5553 349.7815 0081324 252.8654 106.3531 14.74986800698761
SAUDISAT 2              
1 28371U 04025F   15355.17128892  .00000242  00000-0  67309-4 0  9996
2 28371  98.0577 316.3060 0024756 222.9574 136.9697 14.54128894608778
UNISAT 3                
1 28373U 04025H   15354.17019709  .00000306  00000-0  97059-4 0  9999
2 28373  98.2753 296.8834 0070365  65.4827 295.3680 14.45210208605171
SAUDISAT 3              
1 31118U 07012B   15355.18293141 -.00000082  00000-0 -62098-5 0  9994
2 31118  97.7233   7.3869 0014435 207.4734 152.5703 14.68953060465149
